STARLINK-2051
1 27661C 21012AT  21325.15207949  .00008524  00000-0  57091-3 0  3257
2 27661  53.0546 257.5373 0002112  68.0893 260.7713 15.06402866    16
